{
  "norad_id": 64508,
  "name": "KUIPER-00048",
  "history": [
    {
      "epoch": "2026-03-28T13:22:34.150080Z",
      "apogee_km": 630.1025961178875,
      "perigee_km": 629.2406356581332,
      "latitude_deg": 3.7900980592555214e-05,
      "longitude_deg": 105.52606269098004,
      "height_km": 630.4972872837617,
      "semi_major_axis_km": 7007.8086158880105,
      "eccentricity": 6.15e-05,
      "inclination_deg": 51.8979,
      "raan_deg": 132.1444,
      "arg_perigee_deg": 100.6884,
      "mean_anomaly_deg": 259.4148,
      "mean_motion_rev_day": 14.79889923
    },
    {
      "epoch": "2026-03-29T02:20:32.565696Z",
      "apogee_km": 630.1975861780129,
      "perigee_km": 629.1814513327936,
      "latitude_deg": 1.0517560243129548e-05,
      "longitude_deg": -91.88966119185582,
      "height_km": 630.2124529732614,
      "semi_major_axis_km": 7007.826518755403,
      "eccentricity": 7.25e-05,
      "inclination_deg": 51.8988,
      "raan_deg": 129.7546,
      "arg_perigee_deg": 63.9837,
      "mean_anomaly_deg": 296.12,
      "mean_motion_rev_day": 14.79884252
    },
    {
      "epoch": "2026-03-30T05:53:43.056672Z",
      "apogee_km": 630.2143735512891,
      "perigee_km": 629.0918657299262,
      "latitude_deg": 1.5389270745851307e-06,
      "longitude_deg": -151.39133782808588,
      "height_km": 630.1324507172609,
      "semi_major_axis_km": 7007.790119640607,
      "eccentricity": 8.009e-05,
      "inclination_deg": 51.8987,
      "raan_deg": 124.6782,
      "arg_perigee_deg": 61.6653,
      "mean_anomaly_deg": 298.439,
      "mean_motion_rev_day": 14.79895782
    },
    {
      "epoch": "2026-03-30T09:08:12.479136Z",
      "apogee_km": 630.1974072453986,
      "perigee_km": 629.1019500317943,
      "latitude_deg": -7.859937612500151e-06,
      "longitude_deg": 159.25573746706215,
      "height_km": 630.1478421400715,
      "semi_major_axis_km": 7007.786678638597,
      "eccentricity": 7.816e-05,
      "inclination_deg": 51.8987,
      "raan_deg": 124.081,
      "arg_perigee_deg": 63.1293,
      "mean_anomaly_deg": 296.9749,
      "mean_motion_rev_day": 14.79896872
    },
    {
      "epoch": "2026-03-30T18:51:40.660992Z",
      "apogee_km": 630.1867667172965,
      "perigee_km": 629.0858455309035,
      "latitude_deg": 3.3021168438585685e-05,
      "longitude_deg": 11.197274600978226,
      "height_km": 630.1342357228998,
      "semi_major_axis_km": 7007.7733061241,
      "eccentricity": 7.855e-05,
      "inclination_deg": 51.8986,
      "raan_deg": 122.2893,
      "arg_perigee_deg": 63.2484,
      "mean_anomaly_deg": 296.8559,
      "mean_motion_rev_day": 14.79901108
    },
    {
      "epoch": "2026-03-31T11:04:07.489920Z",
      "apogee_km": 630.1651777579245,
      "perigee_km": 629.0722481769308,
      "latitude_deg": 7.137108855929364e-05,
      "longitude_deg": 124.43400178219196,
      "height_km": 630.1195912648774,
      "semi_major_axis_km": 7007.755712967428,
      "eccentricity": 7.798e-05,
      "inclination_deg": 51.8989,
      "raan_deg": 119.3034,
      "arg_perigee_deg": 63.3794,
      "mean_anomaly_deg": 296.7249,
      "mean_motion_rev_day": 14.79906681
    },
    {
      "epoch": "2026-04-01T17:51:45.876672Z",
      "apogee_km": 630.1674955253029,
      "perigee_km": 629.0182278279881,
      "latitude_deg": -2.723462574352863e-05,
      "longitude_deg": 15.584817264202558,
      "height_km": 630.0953272470579,
      "semi_major_axis_km": 7007.729861676646,
      "eccentricity": 8.2e-05,
      "inclination_deg": 51.898,
      "raan_deg": 113.6289,
      "arg_perigee_deg": 64.9687,
      "mean_anomaly_deg": 295.136,
      "mean_motion_rev_day": 14.7991487
    },
    {
      "epoch": "2026-04-02T18:10:25.071168Z",
      "apogee_km": 630.1245233004984,
      "perigee_km": 628.9990868724008,
      "latitude_deg": 2.961814396698861e-07,
      "longitude_deg": 5.443316512761927,
      "height_km": 630.0381351387431,
      "semi_major_axis_km": 7007.698805086449,
      "eccentricity": 8.03e-05,
      "inclination_deg": 51.898,
      "raan_deg": 109.1491,
      "arg_perigee_deg": 61.4057,
      "mean_anomaly_deg": 298.6986,
      "mean_motion_rev_day": 14.79924708
    },
    {
      "epoch": "2026-04-02T18:10:25.072032Z",
      "apogee_km": 630.1245233004984,
      "perigee_km": 628.9990868724008,
      "latitude_deg": 2.9618111909909886e-07,
      "longitude_deg": 5.443312902907196,
      "height_km": 630.0381351387472,
      "semi_major_axis_km": 7007.698805086449,
      "eccentricity": 8.03e-05,
      "inclination_deg": 51.898,
      "raan_deg": 109.1491,
      "arg_perigee_deg": 61.4057,
      "mean_anomaly_deg": 298.6986,
      "mean_motion_rev_day": 14.79924708
    },
    {
      "epoch": "2026-04-03T10:22:52.082400Z",
      "apogee_km": 630.1494207140813,
      "perigee_km": 629.0650423716925,
      "latitude_deg": 1.5005626830549268e-06,
      "longitude_deg": 118.67875228762047,
      "height_km": 630.1432662777232,
      "semi_major_axis_km": 7007.744231542886,
      "eccentricity": 7.737e-05,
      "inclination_deg": 51.8986,
      "raan_deg": 106.1627,
      "arg_perigee_deg": 67.2511,
      "mean_anomaly_deg": 292.8533,
      "mean_motion_rev_day": 14.79910318
    },
    {
      "epoch": "2026-04-04T07:27:02.968128Z",
      "apogee_km": 630.1353780061754,
      "perigee_km": 629.0872991646565,
      "latitude_deg": 6.392538016139775e-05,
      "longitude_deg": 157.8855419936999,
      "height_km": 630.1854256480356,
      "semi_major_axis_km": 7007.748338585416,
      "eccentricity": 7.478e-05,
      "inclination_deg": 51.8984,
      "raan_deg": 102.2801,
      "arg_perigee_deg": 70.8872,
      "mean_anomaly_deg": 289.2172,
      "mean_motion_rev_day": 14.79909017
    },
    {
      "epoch": "2026-04-05T09:22:57.659232Z",
      "apogee_km": 630.1635149053554,
      "perigee_km": 629.0298037539496,
      "latitude_deg": -2.7116312896527155e-05,
      "longitude_deg": 123.06450644288576,
      "height_km": 630.1863795240322,
      "semi_major_axis_km": 7007.733659329652,
      "eccentricity": 8.089e-05,
      "inclination_deg": 51.8975,
      "raan_deg": 97.502,
      "arg_perigee_deg": 74.0491,
      "mean_anomaly_deg": 286.056,
      "mean_motion_rev_day": 14.79913667
    },
    {
      "epoch": "2026-04-05T17:29:10.857696Z",
      "apogee_km": 630.1730979627191,
      "perigee_km": 629.0042093236907,
      "latitude_deg": 1.7024255314568086e-05,
      "longitude_deg": -0.31605908280632117,
      "height_km": 630.1667205161999,
      "semi_major_axis_km": 7007.725653643204,
      "eccentricity": 8.34e-05,
      "inclination_deg": 51.8979,
      "raan_deg": 96.0092,
      "arg_perigee_deg": 73.3515,
      "mean_anomaly_deg": 286.7539,
      "mean_motion_rev_day": 14.79916203
    },
    {
      "epoch": "2026-04-06T04:49:53.259168Z",
      "apogee_km": 630.1681899478835,
      "perigee_km": 628.9897724284874,
      "latitude_deg": -1.3973447666884768e-05,
      "longitude_deg": -173.04908421769488,
      "height_km": 630.1693016947992,
      "semi_major_axis_km": 7007.715981188186,
      "eccentricity": 8.408e-05,
      "inclination_deg": 51.8983,
      "raan_deg": 93.9188,
      "arg_perigee_deg": 74.7257,
      "mean_anomaly_deg": 285.3798,
      "mean_motion_rev_day": 14.79919267
    },
    {
      "epoch": "2026-04-07T06:45:46.989504Z",
      "apogee_km": 630.1689254628745,
      "perigee_km": 628.9435602224312,
      "latitude_deg": -3.850504319058846e-05,
      "longitude_deg": 152.13464481130006,
      "height_km": 630.1317100762059,
      "semi_major_axis_km": 7007.693242842653,
      "eccentricity": 8.743e-05,
      "inclination_deg": 51.8988,
      "raan_deg": 89.1414,
      "arg_perigee_deg": 73.8814,
      "mean_anomaly_deg": 286.2244,
      "mean_motion_rev_day": 14.7992647
    }
  ]
}